CP10 (EXOCUBE)          
1 40380U 15003E   21337.01340968  .00002725  00000+0  11540-3 0  9990
2 40380  99.1166 135.6978 0131323  25.1623 335.5926 15.16875981377360
INMARSAT 5-F2           
1 40384U 15005A   21337.15960034 -.00000269  00000+0  00000+0 0  9990
2 40384   0.0022  12.0011 0000219 298.8813 123.7935  1.00270335 25065
COSMOS 2503             
1 40420U 15009A   21337.23082103  .00000125  00000+0  15498-4 0  9998
2 40420  97.9519 332.9081 0012319  36.8383 323.3673 14.98884474370199
ABS-3A                  
1 40424U 15010A   21337.08641017 -.00000010  00000+0  00000+0 0  9994
2 40424   0.0110 342.4779 0001857 170.7005 307.0880  1.00270237 24773
EUTELSAT 115 WEST B     
1 40425U 15010B   21336.45066764 -.00000007  00000+0  00000+0 0  9991
2 40425   0.0329 155.6001 0000250  92.1193 231.1445  1.00272689 24787
MMS 1                   
1 40482U 15011A   21327.22916667 -.00000223  00000+0  00000+0 0  9996
2 40482  33.5307 113.0917 8480662  40.4603 246.8606  0.28421150 12710
MMS 2                   
1 40483U 15011B   21327.22916667 -.00000222  00000+0  00000+0 0  9996
2 40483  33.5292 113.0954 8480033  40.4657 246.8378  0.28421149 12776
MMS 3                   
1 40484U 15011C   21327.22916667 -.00000223  00000+0  00000+0 0  9998
2 40484  33.5234 113.0669 8480324  40.4892 246.8354  0.28423485 12454
MMS 4                   
1 40485U 15011D   21327.22916667 -.00000222  00000+0  00000+0 0  9998
2 40485  33.5301 113.0914 8479243  40.4606 246.8596  0.28421138 12668
EXPRESS-AM7             
1 40505U 15012A   21336.73610194  .00000168  00000+0  00000+0 0  9992
2 40505   0.0114 303.4274 0002606 304.3805 129.0142  1.00268569 24385
NAVSTAR 73 (USA 260)    
1 40534U 15013A   21336.78079951 -.00000021  00000+0  00000+0 0  9999
2 40534  53.8342 272.8426 0064803  16.4025 343.8084  2.00564401 48580
KOMPSAT-3A              
1 40536U 15014A   21337.20866031  .00000993  00000+0  60962-4 0  9998
2 40536  97.5519 276.8831 0004096  93.2789  46.7181 15.12374142369384
GSAT0203 (GALILEO 7)    
1 40544U 15017A   21337.11328076 -.00000073  00000+0  00000+0 0  9994
2 40544  56.7122  26.7416 0004993 247.5644 112.4493  1.70476026 41614
GSAT0204 (GALILEO 8)    
1 40545U 15017B   21335.60595386 -.00000070  00000+0  00000+0 0  9994
2 40545  56.7173  26.7945 0004754 235.2733 124.7462  1.70475569  3976
IRNSS-1D                
1 40547U 15018A   21335.97733911 -.00000289  00000+0  00000+0 0  9997
2 40547  28.9783 268.4535 0017823 183.2998  82.7865  1.00265938 24368
BEIDOU 17               
1 40549U 15019A   21336.71986571 -.00000184  00000+0  00000+0 0  9999
2 40549  52.2199 315.0389 0037142 191.4305 280.0817  1.00285321 24465
GONETS-M 11             
1 40552U 15020A   21336.72796819  .00000015  00000+0  37535-4 0  9990
2 40552  82.4874 343.6862 0017024  23.1435 337.0407 12.42884248302872
GONETS-M 12             
1 40553U 15020B   21336.78215092  .00000014  00000+0  26714-4 0  9992
2 40553  82.4900 344.3061 0015098   7.9422 352.1899 12.42877855302876
GONETS-M 13             
1 40554U 15020C   21337.15663494  .00000008  00000+0 -98216-5 0  9999
2 40554  82.4864 343.2221 0013242 352.5612   7.5269 12.42893818302937
COSMOS 2504             
1 40555U 15020D   21336.90797043  .00000112  00000+0  31857-4 0  9992
2 40555  82.5195  69.9288 0616892  91.6844 275.5019 13.59483050324878
THOR 7                  
1 40613U 15022A   21336.72799066  .00000009  00000+0  00000+0 0  9992
2 40613   0.0470 126.6217 0002356 123.6027  82.9937  1.00270635 24209
TURKMENALEM52E/MONACOSAT
1 40617U 15023A   21336.73854406  .00000121  00000+0  00000+0 0  9993
2 40617   0.0177 332.5804 0002596 274.8611 142.2760  1.00270369 24210
DIRECTV 15              
1 40663U 15026A   21336.99474378 -.00000086  00000+0  00000+0 0  9992
2 40663   0.0271  71.3398 0000552  82.6862 173.2773  1.00271359 23919
SKY MEXICO-1            
1 40664U 15026B   21336.49712380 -.00000217  00000+0  00000+0 0  9992
2 40664   0.0162 308.2769 0002189 313.8295 269.6564  1.00270023 23836
SENTINEL-2A             
1 40697U 15028A   21337.17953562  .00000021  00000+0  24459-4 0  9996
2 40697  98.5638  49.7417 0001200  91.0334 269.0998 14.30819335336789
COSMOS 2506             
1 40699U 15029A   21337.14813706 -.00000002  00000+0  10358-4 0  9994
2 40699  98.2879  32.5834 0008495 241.7527 118.2820 14.53344080342128
GAOFEN 8                
1 40701U 15030A   21336.39767755  .00013492  00000+0  56882-3 0  9995
2 40701  97.5361 104.8419 0008053  76.2378   9.2617 15.23412264358383
DMC3-FM1                
1 40715U 15032A   21337.26792133  .00000089  00000+0  21126-4 0  9999
2 40715  97.8694 223.2305 0014395 314.2790  45.7241 14.73691656344278
DMC3-FM2                
1 40716U 15032B   21337.29026597  .00000082  00000+0  20041-4 0  9995
2 40716  97.8728 223.8026 0011930 324.0842  35.9569 14.73683288344289
DMC3-FM3                
1 40717U 15032C   21337.24537614  .00000098  00000+0  22582-4 0  9997
2 40717  97.8754 224.5966 0015367 315.5418  44.4554 14.73703590344279
CARBONITE 1 (CBNT-1)    
1 40718U 15032D   21337.23466345  .00000341  00000+0  57815-4 0  9997
2 40718  97.7614 204.8147 0015469 292.1231  67.8328 14.75069225344496
NAVSTAR 74 (USA 262)    
1 40730U 15033A   21336.44369769 -.00000052  00000+0  00000+0 0  9995
2 40730  55.3256 334.6046 0068627   1.4153 358.6254  2.00562135 46749
METEOSAT-11 (MSG-4)     
1 40732U 15034A   21336.72807788  .00000011  00000+0  00000+0 0  9991
2 40732   0.4865 108.4334 0000461  21.1532 203.9287  1.00273011 23404
STAR ONE C4             
1 40733U 15034B   21336.54490126 -.00000247  00000+0  00000+0 0  9998
2 40733   0.0389  38.7898 0002029 252.5532 266.4349  1.00270003 23405
WGS F7 (USA 263)        
1 40746U 15036A   21336.83483309  .00000035  00000+0  00000+0 0  9995
2 40746   0.0100 326.6926 0000678 248.8795 331.8808  1.00272199 23267
BEIDOU 18               
1 40748U 15037A   21336.65567083 -.00000063  00000+0  00000+0 0  9992
2 40748  55.9146 358.3846 0002404 322.0862  18.2628  1.86233453 43240
BEIDOU 19               
1 40749U 15037B   21336.74086800 -.00000064  00000+0  00000+0 0  9997
2 40749  55.9181 358.3718 0005721 292.9328 239.8694  1.86232179 43243
INTELSAT 34 (IS-34)     
1 40874U 15039A   21336.71708837 -.00000268  00000+0  00000+0 0  9992
2 40874   0.0165 311.2951 0000377 167.1254 156.0351  1.00270244 23008
EUTELSAT 8 WEST B       
1 40875U 15039B   21336.72650795 -.00000048  00000+0  00000+0 0  9999
2 40875   0.0670  15.1085 0001370 255.9094  54.3305  1.00271552 23035
YAOGAN 27               
1 40878U 15040A   21337.16344312 -.00000020  00000+0  58662-4 0  9990
2 40878 100.1575  12.0661 0009084  79.1551 281.0585 13.15969437301217
GSAT-6                  
1 40880U 15041A   21337.11091035 -.00000144  00000+0  00000+0 0  9995
2 40880   0.0314 284.5380 0003839 300.0302 330.0596  1.00271812 22991
INMARSAT 5-F3           
1 40882U 15042A   21336.83570528  .00000067  00000+0  00000+0 0  9998
2 40882   0.0158 311.4123 0000119 203.8652  37.0740  1.00271636 22955
MUOS-4                  
1 40887U 15044A   21336.89319742 -.00000083  00000+0  00000+0 0  9999
2 40887   2.5792   0.1429 0053522 357.0742 111.2792  1.00271009 22945
GSAT0205 (GALILEO 9)    
1 40889U 15045A   21336.54644634 -.00000019  00000+0  00000+0 0  9994
2 40889  55.7574 267.4028 0005529   1.3328 358.6728  1.70474510 38752
GSAT0206 (GALILEO 10)   
1 40890U 15045B   21336.17970267 -.00000019  00000+0  00000+0 0  9999
2 40890  55.7568 267.4090 0004064 347.7861  12.2070  1.70472708 38770
TJS-1                   
1 40892U 15046A   21337.26478431 -.00000140  00000+0  00000+0 0  9994
2 40892   0.0424 273.5526 0002807  70.8441 338.2318  1.00272903 22934
GAOFEN 9-01             
1 40894U 15047A   21337.18209590  .00000187  00000+0  33983-4 0  9997
2 40894  97.8419  48.5436 0034341 123.8927 236.5708 14.76300461335220
EXPRESS-AM8             
1 40895U 15048A   21337.27618890 -.00000095  00000+0  00000+0 0  9994
2 40895   0.0072 263.9593 0000133  78.9600 174.8511  1.00271407 22767
2015-049A               
1 40899U 15049A   21337.07786449  .00002033  00000+0  10395-3 0  9998
2 40899  97.4790 338.4505 0013954 337.3498  93.2080 15.17719226343323
NUDT-PHONESAT           
1 40900U 15049B   21337.08997751  .00008420  00000+0  30726-3 0  9998
2 40900  97.4143 350.2386 0009420 263.0551 172.3989 15.28351151344560
ZDPS 2A                 
1 40901U 15049C   21337.12211450  .00004260  00000+0  19789-3 0  9993
2 40901  97.4631 342.4832 0011670 319.9224 112.3753 15.20489681343597
ZDPS 2B                 
1 40902U 15049D   21337.09672888  .00004253  00000+0  19724-3 0  9997
2 40902  97.4689 339.9119 0011445 316.9004 116.4848 15.20548256343564
XW-2A                   
1 40903U 15049E   21337.15883500  .00008078  00000+0  16056-3 0  9994
2 40903  97.2148  31.0861 0013424 115.2826 304.6238 15.47130632348864
KAITUO 1A               
1 40904U 15049F   21337.14802411  .00001473  00000+0  78768-4 0  9997
2 40904  97.4916 336.8265 0013813 339.4931  92.4810 15.16576636343107
2015-049G               
1 40905U 15049G   21337.11973935  .00001596  00000+0  88047-4 0  9992
2 40905  97.5082 333.9142 0014810 339.8558  84.8157 15.15336109342872
XW-2C                   
1 40906U 15049H   21337.09319846  .00002031  00000+0  10526-3 0  9996
2 40906  97.4914 337.4378 0013461 328.0924 105.0421 15.17258505343139
XW-2D                   
1 40907U 15049J   21337.11358617  .00002577  00000+0  13121-3 0  9998
2 40907  97.4897 337.3174 0012624 324.1072 104.0980 15.17651535343177
LILACSAT-2              
1 40908U 15049K   21337.08253784  .00001091  00000+0  62350-4 0  9993
2 40908  97.5113 334.8777 0015109 342.8447  90.4741 15.14741590342759
XW-2E                   
1 40909U 15049L   21337.11032429  .00003702  00000+0  17283-3 0  9994
2 40909  97.4678 341.5340 0011502 307.1008 126.3991 15.20405718343557
